[{"OBJECT_NAME":"TWILIGHT-1 OBJECT Z","OBJECT_ID":"2026-004Z","EPOCH":"2026-03-09T21:26:05.365824","MEAN_MOTION":14.88483265,"ECCENTRICITY":0.00044133,"INCLINATION":97.8002,"RA_OF_ASC_NODE":69.141,"ARG_OF_PERICENTER":91.4966,"MEAN_ANOMALY":268.6757,"EPHEMERIS_TYPE":0,"CLASSIFICATION_TYPE":"U","NORAD_CAT_ID":67386,"ELEMENT_SET_NO":999,"REV_AT_EPOCH":852,"BSTAR":0.00035192428,"MEAN_MOTION_DOT":3.215e-5,"MEAN_MOTION_DDOT":0},{"OBJECT_NAME":"FENGYUN 1C DEB","OBJECT_ID":"1999-025BHW","EPOCH":"2026-03-09T14:51:19.966176","MEAN_MOTION":14.68403746,"ECCENTRICITY":0.0107026,"INCLINATION":98.8991,"RA_OF_ASC_NODE":212.3286,"ARG_OF_PERICENTER":154.3231,"MEAN_ANOMALY":206.3341,"EPHEMERIS_TYPE":0,"CLASSIFICATION_TYPE":"U","NORAD_CAT_ID":31168,"ELEMENT_SET_NO":999,"REV_AT_EPOCH":372,"BSTAR":0.0013186,"MEAN_MOTION_DOT":8.266e-5,"MEAN_MOTION_DDOT":0}]
